{"type":"FeatureCollection","name":"泰国_ADM0_国家边界","crs":{"type":"name","properties":{"name":"urn:ogc:def:crs:OGC:1.3:CRS84"}},"features":[{"type":"Feature","id":"TH","properties":{"国家代码":"TH","行政层级":0,"行政层级中文":"国家","行政区代码":"TH","中文名称":"泰国","泰文名称":"ประเทศไทย","英文名称":"Thailand","边界坐标系":"WGS84 / EPSG:4326","边界来源":"77个ADM1边界融合"},"geometry":{"type":"MultiPolygon","coordinates":[[[[99.64889111300005,6.737223870000037],[99.69789449500007,6.542988628000046],[99.59564262900005,6.598117567000031],[99.64889111300005,6.737223870000037]]],[[[99.77192832300005,6.842843576000064],[99.69716274400008,6.855852844000026],[99.66990214700007,7.040738822000037],[99.73933561800004,7.131864303000043],[99.60410721800008,7.136687259000041],[99.53611305800007,7.295718648000047],[99.39840228400004,7.3045460390000585],[99.25947516700006,7.657362437000074],[99.11578670000006,7.760163652000074],[98.91280544000006,8.04521618800004],[98.73996466200003,8.077967009000076],[98.70606263100007,8.288013396000053],[98.63543150500004,8.375372567000056],[98.47354040200008,8.316669500000046],[98.38681472300004,8.126747304000048],[98.35333019100005,8.190755190000061],[98.28201901900007,8.205907566000064],[98.20518825200008,8.552651516000026],[98.28811424300005,8.914590477000047],[98.35877492600008,8.983415343000047],[98.31628922800007,9.19331777800005],[98.39046793200004,9.332189766000056],[98.45578122700005,9.563342540000065],[98.55422527800005,9.748972252000044],[98.51579492500008,9.853278359000058],[98.69524351100006,10.204726552000068],[98.81741548400004,10.547357828000031],[98.78100512400005,10.674929703000032],[98.88538062100008,10.784155464000037],[99.15377956800006,11.033709260000023],[99.31192143900006,11.317323948000023],[99.56571565500008,11.626758063000068],[99.65921659600008,11.828606732000026],[99.53619476900008,12.01596439900004],[99.57106401300007,12.143820154000025],[99.47241441300008,12.135753797000064],[99.48268821200008,12.278678996000053],[99.40073770500004,12.459750490000033],[99.43858302600006,12.582979351000063],[99.24772968700006,12.719174630000055],[99.09952668500006,13.072752298000069],[99.21003922400007,13.208078904000047],[99.16731530500005,13.725852798000062],[99.10875111300004,13.890645907000021],[98.96731657500004,14.082835700000032],[98.75717778100005,14.213629294000043],[98.56222864300008,14.386321245000033],[98.49263023000003,14.539045341000076],[98.24594212000005,14.830934959000047],[98.18117530200004,15.11522070600006],[98.20916613900005,15.238804921000053],[98.50049562900006,15.40459816300006],[98.55953237800009,15.337091980000025],[98.55777965600004,15.652479867000068],[98.60798400900006,16.04296551300007],[98.70160930500003,16.135943659000077],[98.84785320000003,16.12772262200002],[98.93163627100006,16.329378950000034],[98.87776836300009,16.425233666000054],[98.67093966300007,16.28453339200007],[98.65650315100004,16.457196831000033],[98.46307608800004,16.730372911000075],[98.54722081900007,16.81302145500007],[98.49476870600006,16.94933467800007],[97.92309858700008,17.53926602000007],[97.74237573800008,17.78576542600007],[97.67199302300008,17.88289486800005],[97.73571049100008,17.987819165000076],[97.63908140600006,18.287019601000054],[97.44672769900006,18.331405991000054],[97.36224210100005,18.56180640100007],[97.53679412000008,18.49274103500005],[97.76851914100007,18.578125252000063],[97.73715099600008,18.886638146000053],[97.66609186100004,18.937274820000027],[97.83615787200006,19.093514398000025],[97.80360717000008,19.404973555000026],[97.86319687600007,19.57703953500004],[98.04433017300005,19.653431569000077],[98.03400271800007,19.803439081000022],[98.24827022600005,19.676676334000035],[98.46652037100006,19.692231639000056],[98.83321859200004,19.811584652000022],[99.00326015900004,19.78810592900004],[99.07773457900004,20.101983147000055],[99.15871945200007,20.133010892000073],[99.40015360300004,20.086209765000035],[99.51307463500007,20.147433560000024],[99.56357582900006,20.20563224500006],[99.45776616100005,20.392679814000076],[99.67652072500005,20.317422548000025],[99.81065542300007,20.336361237000062],[99.86513415700006,20.446171565000043],[100.05961131000004,20.396268690000056],[100.17416161200003,20.248182232000033],[100.27203923500008,20.400968886000044],[100.37245113500006,20.353685433000066],[100.45628342900005,20.19898002700006],[100.57817302800004,20.168027981000023],[100.50008175500005,19.868333560000053],[100.40657643800006,19.73606207800003],[100.48751513800005,19.54293974600006],[100.59862199300005,19.510074245000055],[100.77168805400004,19.487565434000032],[100.89791221800004,19.634937491000073],[101.12293069600008,19.572827414000074],[101.28114519300004,19.581887231000053],[101.19089206900009,19.377284990000078],[101.25674840300007,19.124650338000038],[101.35814707700007,19.050901318000058],[101.24710685400004,18.891373111000064],[101.27097008400006,18.69342787900007],[101.05239619700006,18.426911731000075],[101.08541647400006,18.38101637500006],[101.18219257000004,18.340723125000068],[101.18448572100004,18.066173492000075],[101.01931836400007,17.891246245000048],[100.98884959300005,17.743676454000024],[100.96788010400007,17.571621966000066],[101.16363413500005,17.469633901000066],[101.25872648300003,17.59726964500004],[101.57006853000007,17.86446309200005],[101.71735618600007,17.90608153900007],[101.78696602300005,18.071662932000038],[101.90351235200006,18.02985779900007],[102.10565660800006,18.213514564000036],[102.28838215000007,18.058996292000074],[102.61372369400004,17.941569506000064],[102.59169739700008,17.83867437300006],[102.96005815200004,18.00543953400006],[103.07543376900009,18.02643443200003],[103.16813651200005,18.257758143000046],[103.29858912300006,18.305247632000032],[103.24391095800007,18.368351353000037],[103.41489389200007,18.447984935000022],[103.82385109900008,18.33628998100005],[103.97519456100008,18.336028301000056],[104.18998160400008,18.023739802000023],[104.27060645200004,17.871550797000054],[104.46651395100008,17.656664501000023],[104.70554377900004,17.526443378000067],[104.80061318300005,17.39315706600007],[104.80226375200004,17.171939552000026],[104.72934509700008,17.00104267000006],[104.73726180000006,16.80471362800006],[104.73381104300006,16.560016072000053],[104.97872389200006,16.279131600000028],[105.06026078000008,16.09814908000004],[105.40894689400005,16.016221082000072],[105.35204556900004,15.907118727000068],[105.40058905000006,15.795714777000057],[105.63462664900004,15.663006515000063],[105.59170558100004,15.42543196500003],[105.49295751600005,15.385804741000072],[105.59224355900005,15.274417472000039],[105.46923061300004,15.159179858000073],[105.57443698400004,14.999086181000052],[105.51127443700005,14.799279346000048],[105.53866498200006,14.582178536000072],[105.42401645000007,14.416545149000058],[105.17472753100009,14.34328381000006],[105.14204959600005,14.237349554000048],[105.02618357200004,14.237162785000066],[104.99301147700004,14.377844269000036],[104.90710547700007,14.399177843000075],[104.65124347000005,14.422034974000042],[104.53335304300003,14.354527418000032],[104.05712228100003,14.343440557000065],[103.70554806700005,14.376805950000062],[103.70666262300006,14.43303471300004],[103.22619930000008,14.326709882000046],[103.05707306000005,14.285129009000059],[102.93035676000005,14.175651232000064],[102.90975724300006,14.015952451000032],[102.78325152400004,13.932903563000025],[102.73082395600005,13.772077306000028],[102.55031327200004,13.65830605900004],[102.53702942600006,13.56619747600007],[102.36507573900008,13.577603965000037],[102.35357461600006,13.298943492000035],[102.49431446100004,13.013603476000071],[102.50762102800007,12.752436102000047],[102.51022080100006,12.670657506000055],[102.64592353800003,12.610956015000056],[102.78760074000007,12.410923031000038],[102.72617545400004,12.364192703000072],[102.70609133400006,12.181018658000028],[102.75379018600006,12.042019550000077],[102.55790959700005,12.182429291000062],[102.54764378400006,12.058718912000074],[102.47151985600004,12.164821737000068],[102.31338765400005,12.182911767000064],[102.25776175800007,12.29291971300006],[101.78435838500008,12.69319157600006],[101.64585009000007,12.642343019000066],[100.99225785100003,12.656245697000031],[100.85269140800006,12.64836277300003],[100.91337411300003,12.807199031000039],[100.85586721900006,12.909983853000028],[100.92800983600006,13.009579547000044],[100.87187041200008,13.077116830000023],[100.93634618600004,13.215211747000069],[100.89751534900006,13.302439332000063],[100.96301593000004,13.460827564000056],[100.84839130800003,13.478420328000027],[100.61188939000004,13.538899895000043],[100.45369343500005,13.501979764000055],[100.40883825200007,13.493389571000023],[100.07878223200004,13.425330343000041],[99.95250447900008,13.296620133000033],[100.10204069400004,13.056547610000052],[100.04083706300008,12.965343768000025],[99.95611290700003,12.632498751000071],[100.01889858000004,12.187289215000021],[99.86749924900005,11.998444643000028],[99.83551505900004,11.84165002100002],[99.63802122700008,11.516401238000071],[99.48610423300005,11.120123619000026],[99.50256046200008,10.991796295000029],[99.35896645900004,10.675419242000032],[99.22914599300003,10.469460421000065],[99.28561071300004,10.367715876000034],[99.14629276300008,10.342832326000064],[99.20772080100005,10.267914546000043],[99.14761321700007,10.119372583000029],[99.15931372200004,9.70209692000003],[99.30159241700005,9.409563070000047],[99.22404735000003,9.25599042400006],[99.37032182300004,9.189647532000038],[99.76912757800005,9.322795434000057],[99.84350328800008,9.293580915000064],[99.90909541200006,9.099066395000023],[99.95219634500006,8.633109036000064],[100.08721351400004,8.414540638000062],[100.22264005900007,8.422703052000031],[100.33657390400003,7.931797047000032],[100.44029673900008,7.493847451000022],[100.50587105000005,7.32199257000002],[100.76825192400008,6.982620070000053],[101.06609815300004,6.857092431000069],[101.35401893400007,6.905727171000024],[101.55759332000008,6.845412225000075],[101.72484185400003,6.576857325000049],[101.81629190400008,6.452915207000046],[102.08904838600006,6.244874955000057],[102.05386343000004,6.0799219320000475],[101.93984835600008,5.972718273000055],[101.94320512600007,5.872064641000065],[101.81743903000006,5.733001936000051],[101.69020704800005,5.756031193000069],[101.58108960500005,5.934509778000063],[101.50222226700004,5.889682420000042],[101.26359431800006,5.800917696000056],[101.25979354600008,5.712162913000043],[101.13562825500009,5.613037873000053],[100.98963766800006,5.783502776000034],[101.08473000500004,5.909395320000044],[101.12643335300004,6.194152738000071],[100.84104279900004,6.300423765000062],[100.73841905200004,6.510289801000056],[100.65230853200006,6.442930258000047],[100.35968240500006,6.548205496000037],[100.28957743200004,6.710587861000022],[100.20442080600009,6.726748106000059],[100.12077593200007,6.422715688000039],[99.77192832300005,6.842843576000064]]],[[[98.34619987900004,8.122220699000025],[98.43633803900008,8.066656520000038],[98.44070159300009,7.88231292100005],[98.30355545300006,7.763380346000076],[98.26304839900007,7.923850746000028],[98.29763737200005,8.199088239000048],[98.34619987900004,8.122220699000025]]],[[[99.91518198000006,9.57072648600007],[100.06912146700006,9.593519050000054],[100.01726832900005,9.424107762000062],[99.93518395900008,9.425616648000073],[99.91518198000006,9.57072648600007]]],[[[100.02706762900004,9.803976489000036],[100.07013285700003,9.666376016000072],[99.98134237700003,9.713225215000023],[100.02706762900004,9.803976489000036]]],[[[102.55521934500007,11.760885851000069],[102.59401353300007,11.563002815000061],[102.52683747100008,11.60414044600003],[102.55521934500007,11.760885851000069]]],[[[102.25175454300006,12.156834786000047],[102.44660629100008,11.976261495000074],[102.29412448900007,11.982220608000034],[102.25175454300006,12.156834786000047]]]]}}]}